[
    {
        "Altitude(m)": 624790.8154449534,
        "Argument of Periapsis(deg)": 0.0,
        "Eccentricity": 0.0,
        "Inclination(deg)": 60.0,
        "Latitude(deg)": -59.147177385272755,
        "Longitude(deg)": -153.96554670116427,
        "Mean Anomaly(deg)": 278.1818,
        "RAAN(deg)": 20.0,
        "Satellite Name": "Test1 105",
        "Satellite Number": 105,
        "Semi-Major Axis(m)": 6980739.136638005,
        "Time(s)": 0
    },
    {
        "Altitude(m)": 624737.4711597528,
        "Argument of Periapsis(deg)": 0.00010418945913296404,
        "Eccentricity": 0.0,
        "Inclination(deg)": 60.0,
        "Latitude(deg)": -58.99463430677034,
        "Longitude(deg)": -152.84604171521156,
        "Mean Anomaly(deg)": 278.8019061454618,
        "RAAN(deg)": 19.99957995086026,
        "Satellite Name": "Test1 105",
        "Satellite Number": 105,
        "Semi-Major Axis(m)": 6980739.136638005,
        "Time(s)": 10
    }
]